[{"OBJECT_NAME":"GAOFEN-12 02","OBJECT_ID":"2021-026A","EPOCH":"2026-03-09T23:50:36.628800","MEAN_MOTION":14.8020404,"ECCENTRICITY":0.00046205,"INCLINATION":97.9918,"RA_OF_ASC_NODE":67.5938,"ARG_OF_PERICENTER":178.9576,"MEAN_ANOMALY":181.1647,"EPHEMERIS_TYPE":0,"CLASSIFICATION_TYPE":"U","NORAD_CAT_ID":48079,"ELEMENT_SET_NO":999,"REV_AT_EPOCH":26708,"BSTAR":9.800652e-5,"MEAN_MOTION_DOT":6.92e-6,"MEAN_MOTION_DDOT":0},{"OBJECT_NAME":"KUIPER-00170","OBJECT_ID":"2025-217X","EPOCH":"2026-03-09T07:36:16.011072","MEAN_MOTION":14.79913097,"ECCENTRICITY":7.549e-5,"INCLINATION":51.9002,"RA_OF_ASC_NODE":39.732,"ARG_OF_PERICENTER":111.3299,"MEAN_ANOMALY":248.7744,"EPHEMERIS_TYPE":0,"CLASSIFICATION_TYPE":"U","NORAD_CAT_ID":65783,"ELEMENT_SET_NO":999,"REV_AT_EPOCH":2489,"BSTAR":0.00028047595,"MEAN_MOTION_DOT":1.917e-5,"MEAN_MOTION_DDOT":0}]
